0 STARLINK-35732
1 67037U 25294H   26160.93184282  .00014823  00000-0  54659-3 0  9997
2 67037  43.0018 237.3863 0001224 271.5273  88.5438 15.27609468 28902
0 STARLINK-35775
1 67038U 25294J   26161.48563304  .00021562  00000-0  79037-3 0  9990
2 67038  43.0062 233.8017 0000380 220.6209 139.4614 15.27597081 29001
0 STARLINK-35705
1 67039U 25294K   26161.49077183  .00024984  00000-0  91372-3 0  9994
2 67039  42.9993 233.8313 0000357 228.3614 131.7208 15.27602849 28991
0 STARLINK-35786
1 67040U 25294L   26160.92927994  .00014316  00000-0  52842-3 0  9994
2 67040  43.0047 237.3705 0001265 285.0196  75.0516 15.27601388 28903
0 STARLINK-35765
1 67041U 25294M   26161.50619132  .00014734  00000-0  54382-3 0  9997
2 67041  43.0008 233.9550 0001446 273.3434  86.7252 15.27583469 28991
0 STARLINK-35773
1 67042U 25294N   26161.50362283  .00017575  00000-0  64638-3 0  9991
2 67042  42.9996 233.9307 0000658 288.4924  71.5856 15.27595152 28995
0 STARLINK-35901
1 67043U 25294P   26161.57671409  .00019832  00000-0  72802-3 0  9992
2 67043  43.0009 233.6259 0001423 280.4689  79.6002 15.27590381 29001
0 STARLINK-35884
1 67044U 25294Q   26161.47278333  .00022641  00000-0  82930-3 0  9996
2 67044  43.0003 233.7048 0001365 264.7833  95.2863 15.27598359 28993
0 STARLINK-35891
1 67045U 25294R   26160.93570173  .00016372  00000-0  60249-3 0  9997
2 67045  43.0009 237.4111 0001410 279.0787  80.9905 15.27616453 28905
0 STARLINK-35721
1 67046U 25294S   26160.20874178  .00013844  00000-0  51131-3 0  9991
2 67046  43.0003 241.4170 0001154 266.3689  93.7030 15.27602914 28790
0 STARLINK-35779
1 67047U 25294T   26161.49591249  .00015842  00000-0  58366-3 0  9996
2 67047  43.0080 233.8788 0000696 254.1895 105.8880 15.27597267 28994
0 STARLINK-35905
1 67048U 25294U   26161.50747342  .00012307  00000-0  45581-3 0  9994
2 67048  43.0010 233.9658 0000892 142.3119 217.7796 15.27593507 28992
0 STARLINK-35877
1 67049U 25294V   26161.00004630  .00008607  00000-0  32189-3 0  9994
2 67049  43.0029 237.0190 0001490 272.6951  95.7069 15.27586036  5839
0 STARLINK-36078
1 67050U 25294W   26161.48434283  .00016564  00000-0  60974-3 0  9993
2 67050  43.0023 233.7837 0001110 279.6396  80.4330 15.27598270 28992
0 STARLINK-35706
1 67051U 25294X   26161.50233294  .00009046  00000-0  33771-3 0  9998
2 67051  42.9998 233.9197 0001366 268.3997  91.6699 15.27592439 28991
0 STARLINK-35720
1 67052U 25294Y   26161.49462321  .00018675  00000-0  68621-3 0  9992
2 67052  42.9988 233.8597 0001290 279.8615  80.2091 15.27591593 28994
0 STARLINK-35739
1 67053U 25294Z   26161.51261302  .00018406  00000-0  67606-3 0  9996
2 67053  43.0130 233.9987 0000486  51.6232 308.4663 15.27612473 28998
0 STARLINK-35754
1 67054U 25294AA  26161.49719288  .00021933  00000-0  80362-3 0  9998
2 67054  42.9998 233.8818 0000686 272.0760  88.0013 15.27603389 28994
0 STARLINK-35790
1 67055U 25294AB  26161.58056919  .00016626  00000-0  61205-3 0  9992
2 67055  43.0008 233.6500 0001515 267.6920  92.3758 15.27594690 29006
0 STARLINK-36143
1 67056U 25294AC  26161.49205775  .00018138  00000-0  66675-3 0  9995
2 67056  43.0074 233.8453 0000512 253.8359 106.2436 15.27594080 28996
0 STARLINK-36141
1 67057U 25294AD  26160.89971933  .00023101  00000-0  84553-3 0  9996
2 67057  42.9949 237.1329 0002426 287.0936  72.9650 15.27610221 28905
0 STARLINK-35767
1 67058U 25294AE  26160.93440761  .00018850  00000-0  69199-3 0  9996
2 67058  43.0019 237.4021 0004004 266.3278  93.7116 15.27612556 28902
0 HULIANWANG DIGUI-119
1 67059U 25295A   26161.39043190 -.00000098  00000-0  55535-4 0  9990
2 67059  50.0044  50.1594 0000975  57.8102 302.2865 13.29328824 24598
0 HULIANWANG DIGUI-120
1 67060U 25295B   26161.37372713 -.00000093  00000-0  66836-4 0  9997
2 67060  50.0050  50.0810 0000972  60.6639 299.4330 13.29328722 24592
0 HULIANWANG DIGUI-121
1 67061U 25295C   26161.38208230 -.00000098  00000-0  55740-4 0  9998
2 67061  50.0010  50.0609 0000966  58.3339 301.7627 13.29328477 24592
0 HULIANWANG DIGUI-122
1 67062U 25295D   26161.36529794 -.00000092  00000-0  69523-4 0  9996
2 67062  50.0045  50.0287 0000954  58.1298 301.9667 13.29330187 24599
0 HULIANWANG DIGUI-123
1 67063U 25295E   26161.43215385 -.00000084  00000-0  85334-4 0  9992
2 67063  50.0044  49.7194 0000951  58.7865 301.3100 13.29329789 24608
0 HULIANWANG DIGUI-124
1 67064U 25295F   26161.42393204 -.00000088  00000-0  78393-4 0  9990
2 67064  50.0006  49.6085 0000969  60.4157 299.6812 13.29326997 24605
0 HULIANWANG DIGUI-125
1 67065U 25295G   26160.96445500 -.00000084  00000-0  85557-4 0  9992
2 67065  49.9996  51.1686 0000953  56.2403 303.8560 13.29327622 24543
0 HULIANWANG DIGUI-126
1 67066U 25295H   26161.40711676 -.00000095  00000-0  63242-4 0  9992
2 67066  50.0001  49.5103 0001052  58.4169 301.6806 13.29328792 24608
